[{"OBJECT_NAME":"STARLINK-34740","OBJECT_ID":"2025-158K","EPOCH":"2026-03-09T14:10:40.903680","MEAN_MOTION":15.0562128,"ECCENTRICITY":0.000283,"INCLINATION":97.6011,"RA_OF_ASC_NODE":294.0305,"ARG_OF_PERICENTER":93.1107,"MEAN_ANOMALY":267.0444,"EPHEMERIS_TYPE":0,"CLASSIFICATION_TYPE":"U","NORAD_CAT_ID":64941,"ELEMENT_SET_NO":999,"REV_AT_EPOCH":3528,"BSTAR":-0.00011046,"MEAN_MOTION_DOT":-1.653e-5,"MEAN_MOTION_DDOT":0},{"OBJECT_NAME":"DMSP 5D-2 F13 DEB","OBJECT_ID":"1995-015BF","EPOCH":"2026-03-08T19:32:26.019456","MEAN_MOTION":15.08152744,"ECCENTRICITY":0.00224007,"INCLINATION":98.6145,"RA_OF_ASC_NODE":204.4302,"ARG_OF_PERICENTER":265.1662,"MEAN_ANOMALY":94.7005,"EPHEMERIS_TYPE":0,"CLASSIFICATION_TYPE":"U","NORAD_CAT_ID":40463,"ELEMENT_SET_NO":999,"REV_AT_EPOCH":57796,"BSTAR":0.0090845916,"MEAN_MOTION_DOT":0.00143794,"MEAN_MOTION_DDOT":0}]
